{"type": "FeatureCollection", "features": [ {"type": "Feature", "properties": {"norad_id": 33980, "name": "COSMOS 2251 DEB", "group": "cosmos-2251-debris", "lat": -23.92038937371279, "lon": 34.547991761713874, "alt_km": 719.739808683772, "timestamp": "2025-12-21T22:41:41.852262+00:00", "meta": {"OBJECT_NAME": "COSMOS 2251 DEB", "OBJECT_ID": "1993-036FP", "EPOCH": "2025-12-21T13:15:40.156704", "MEAN_MOTION": 14.58696541, "ECCENTRICITY": 0.00281497, "INCLINATION": 74.0208, "RA_OF_ASC_NODE": 42.5989, "ARG_OF_PERICENTER": 186.2293, "MEAN_ANOMALY": 245.4577, "EPHEMERIS_TYPE": 0, "CLASSIFICATION_TYPE": "U", "NORAD_CAT_ID": 33980, "ELEMENT_SET_NO": 999, "REV_AT_EPOCH": 88923, "BSTAR": 0.00043910811, "MEAN_MOTION_DOT": 2.03e-05, "MEAN_MOTION_DDOT": 0}, "tle": {"line1": "1 33980U 93036FP  25355.55254811  .00002030  00000+0  43911-3 0  9990", "line2": "2 33980  74.0208  42.5989 0028149 186.2293 245.4577 14.58696541889231"}}, "geometry": {"type": "Point", "coordinates": [34.547991761713874, -23.92038937371279]}}, {"type": "Feature", "properties": {"norad_id": 33982, "name": "COSMOS 2251 DEB", "group": "cosmos-2251-debris", "lat": -56.85345653755572, "lon": -171.66753634323976, "alt_km": 741.972974494608, "timestamp": "2025-12-21T22:41:41.852273+00:00", "meta": {"OBJECT_NAME": "COSMOS 2251 DEB", "OBJECT_ID": "1993-036FR", "EPOCH": "2025-12-21T08:57:31.841280", "MEAN_MOTION": 14.60245799, "ECCENTRICITY": 0.00753546, "INCLINATION": 74.0699, "RA_OF_ASC_NODE": 343.4872, "ARG_OF_PERICENTER": 25.5441, "MEAN_ANOMALY": 87.9751, "EPHEMERIS_TYPE": 0, "CLASSIFICATION_TYPE": "U", "NORAD_CAT_ID": 33982, "ELEMENT_SET_NO": 999, "REV_AT_EPOCH": 89285, "BSTAR": 0.00038528305, "MEAN_MOTION_DOT": 1.904e-05, "MEAN_MOTION_DDOT": 0}, "tle": {"line1": "1 33982U 93036FR  25355.37328520  .00001904  00000+0  38528-3 0  9998", "line2": "2 33982  74.0699 343.4872 0075354  25.5441  87.9751 14.60245799892854"}}, "geometry": {"type": "Point", "coordinates": [-171.66753634323976, -56.85345653755572]}}, {"type": "Feature", "properties": {"norad_id": 33983, "name": "COSMOS 2251 DEB", "group": "cosmos-2251-debris", "lat": -35.42725880000913, "lon": -38.50580792148829, "alt_km": 714.7069801640173, "timestamp": "2025-12-21T22:41:41.852283+00:00", "meta": {"OBJECT_NAME": "COSMOS 2251 DEB", "OBJECT_ID": "1993-036FS", "EPOCH": "2025-12-21T12:06:08.172864", "MEAN_MOTION": 14.50703547, "ECCENTRICITY": 0.00212104, "INCLINATION": 74.0493, "RA_OF_ASC_NODE": 130.5838, "ARG_OF_PERICENTER": 232.719, "MEAN_ANOMALY": 200.2351, "EPHEMERIS_TYPE": 0, "CLASSIFICATION_TYPE": "U", "NORAD_CAT_ID": 33983, "ELEMENT_SET_NO": 999, "REV_AT_EPOCH": 88756, "BSTAR": 0.00041926793, "MEAN_MOTION_DOT": 1.625e-05, "MEAN_MOTION_DDOT": 0}, "tle": {"line1": "1 33983U 93036FS  25355.50426126  .00001625  00000+0  41927-3 0  9992", "line2": "2 33983  74.0493 130.5838 0021210 232.7190 200.2351 14.50703547887566"}}, "geometry": {"type": "Point", "coordinates": [-38.50580792148829, -35.42725880000913]}}, {"type": "Feature", "properties": {"norad_id": 33984, "name": "COSMOS 2251 DEB", "group": "cosmos-2251-debris", "lat": 53.66538678725063, "lon": 126.37746940875967, "alt_km": 655.1600993242528, "timestamp": "2025-12-21T22:41:41.852307+00:00", "meta": {"OBJECT_NAME": "COSMOS 2251 DEB", "OBJECT_ID": "1993-036FT", "EPOCH": "2025-12-20T17:28:07.943808", "MEAN_MOTION": 14.66425014, "ECCENTRICITY": 0.00226558, "INCLINATION": 74.0092, "RA_OF_ASC_NODE": 331.6753, "ARG_OF_PERICENTER": 167.4977, "MEAN_ANOMALY": 9.642, "EPHEMERIS_TYPE": 0, "CLASSIFICATION_TYPE": "U", "NORAD_CAT_ID": 33984, "ELEMENT_SET_NO": 999, "REV_AT_EPOCH": 89183, "BSTAR": 0.00051467732, "MEAN_MOTION_DOT": 2.827e-05, "MEAN_MOTION_DDOT": 0}, "tle": {"line1": "1 33984U 93036FT  25354.72786972  .00002827  00000+0  51468-3 0  9990", "line2": "2 33984  74.0092 331.6753 0022655 167.4977   9.6420 14.66425014891833"}}, "geometry": {"type": "Point", "coordinates": [126.37746940875967, 53.66538678725063]}}, {"type": "Feature", "properties": {"norad_id": 33986, "name": "COSMOS 2251 DEB", "group": "cosmos-2251-debris", "lat": 72.75955911745429, "lon": -7.152913503225633, "alt_km": 738.895442123232, "timestamp": "2025-12-21T22:41:41.852318+00:00", "meta": {"OBJECT_NAME": "COSMOS 2251 DEB", "OBJECT_ID": "1993-036FV", "EPOCH": "2025-12-21T06:22:09.790176", "MEAN_MOTION": 14.4324223, "ECCENTRICITY": 0.00409243, "INCLINATION": 74.037, "RA_OF_ASC_NODE": 286.8359, "ARG_OF_PERICENTER": 357.7055, "MEAN_ANOMALY": 152.4279, "EPHEMERIS_TYPE": 0, "CLASSIFICATION_TYPE": "U", "NORAD_CAT_ID": 33986, "ELEMENT_SET_NO": 999, "REV_AT_EPOCH": 88151, "BSTAR": 0.00054262191, "MEAN_MOTION_DOT": 1.818e-05, "MEAN_MOTION_DDOT": 0}, "tle": {"line1": "1 33986U 93036FV  25355.26539109  .00001818  00000+0  54262-3 0  9994", "line2": "2 33986  74.0370 286.8359 0040924 357.7055 152.4279 14.43242230881512"}}, "geometry": {"type": "Point", "coordinates": [-7.152913503225633, 72.75955911745429]}}, {"type": "Feature", "properties": {"norad_id": 33990, "name": "COSMOS 2251 DEB", "group": "cosmos-2251-debris", "lat": -66.72726972497539, "lon": -130.86948851277776, "alt_km": 775.872813897291, "timestamp": "2025-12-21T22:41:41.852329+00:00", "meta": {"OBJECT_NAME": "COSMOS 2251 DEB", "OBJECT_ID": "1993-036FZ", "EPOCH": "2025-12-21T03:48:42.156864", "MEAN_MOTION": 13.50007482, "ECCENTRICITY": 0.04074091, "INCLINATION": 73.9285, "RA_OF_ASC_NODE": 272.4779, "ARG_OF_PERICENTER": 291.2724, "MEAN_ANOMALY": 133.5634, "EPHEMERIS_TYPE": 0, "CLASSIFICATION_TYPE": "U", "NORAD_CAT_ID": 33990, "ELEMENT_SET_NO": 999, "REV_AT_EPOCH": 82843, "BSTAR": 0.00062134481, "MEAN_MOTION_DOT": 6.38e-06, "MEAN_MOTION_DDOT": 0}, "tle": {"line1": "1 33990U 93036FZ  25355.15882126  .00000638  00000+0  62134-3 0  9993", "line2": "2 33990  73.9285 272.4779 0407409 291.2724 133.5634 13.50007482828439"}}, "geometry": {"type": "Point", "coordinates": [-130.86948851277776, -66.72726972497539]}}, {"type": "Feature", "properties": {"norad_id": 33992, "name": "COSMOS 2251 DEB", "group": "cosmos-2251-debris", "lat": -19.308211325447935, "lon": -45.78140657397697, "alt_km": 680.7459861670559, "timestamp": "2025-12-21T22:41:41.852339+00:00", "meta": {"OBJECT_NAME": "COSMOS 2251 DEB", "OBJECT_ID": "1993-036GB", "EPOCH": "2025-12-21T08:43:54.620832", "MEAN_MOTION": 14.66276867, "ECCENTRICITY": 0.00517657, "INCLINATION": 74.0241, "RA_OF_ASC_NODE": 321.1008, "ARG_OF_PERICENTER": 76.2726, "MEAN_ANOMALY": 74.5091, "EPHEMERIS_TYPE": 0, "CLASSIFICATION_TYPE": "U", "NORAD_CAT_ID": 33992, "ELEMENT_SET_NO": 999, "REV_AT_EPOCH": 89251, "BSTAR": 0.00060042416, "MEAN_MOTION_DOT": 3.347e-05, "MEAN_MOTION_DDOT": 0}, "tle": {"line1": "1 33992U 93036GB  25355.36382663  .00003347  00000+0  60042-3 0  9995", "line2": "2 33992  74.0241 321.1008 0051765  76.2726  74.5091 14.66276867892519"}}, "geometry": {"type": "Point", "coordinates": [-45.78140657397697, -19.308211325447935]}}, {"type": "Feature", "properties": {"norad_id": 33994, "name": "COSMOS 2251 DEB", "group": "cosmos-2251-debris", "lat": 34.06047649819118, "lon": -17.7800985639227, "alt_km": 768.1355436362192, "timestamp": "2025-12-21T22:41:41.852350+00:00", "meta": {"OBJECT_NAME": "COSMOS 2251 DEB", "OBJECT_ID": "1993-036GD", "EPOCH": "2025-12-21T13:59:48.823872", "MEAN_MOTION": 14.41219668, "ECCENTRICITY": 0.00239123, "INCLINATION": 74.0415, "RA_OF_ASC_NODE": 174.0445, "ARG_OF_PERICENTER": 306.8662, "MEAN_ANOMALY": 117.8883, "EPHEMERIS_TYPE": 0, "CLASSIFICATION_TYPE": "U", "NORAD_CAT_ID": 33994, "ELEMENT_SET_NO": 999, "REV_AT_EPOCH": 88547, "BSTAR": 7.1700884e-05, "MEAN_MOTION_DOT": 2.06e-06, "MEAN_MOTION_DDOT": 0}, "tle": {"line1": "1 33994U 93036GD  25355.58320398  .00000206  00000+0  71701-4 0  9994", "line2": "2 33994  74.0415 174.0445 0023912 306.8662 117.8883 14.41219668885474"}}, "geometry": {"type": "Point", "coordinates": [-17.7800985639227, 34.06047649819118]}}, {"type": "Feature", "properties": {"norad_id": 33995, "name": "COSMOS 2251 DEB", "group": "cosmos-2251-debris", "lat": 6.70018806061562, "lon": 104.43428800961166, "alt_km": 789.7884964125724, "timestamp": "2025-12-21T22:41:41.852360+00:00", "meta": {"OBJECT_NAME": "COSMOS 2251 DEB", "OBJECT_ID": "1993-036GE", "EPOCH": "2025-12-21T14:17:44.142720", "MEAN_MOTION": 14.34812601, "ECCENTRICITY": 0.00595262, "INCLINATION": 74.0618, "RA_OF_ASC_NODE": 103.1505, "ARG_OF_PERICENTER": 115.072, "MEAN_ANOMALY": 245.6627, "EPHEMERIS_TYPE": 0, "CLASSIFICATION_TYPE": "U", "NORAD_CAT_ID": 33995, "ELEMENT_SET_NO": 999, "REV_AT_EPOCH": 87646, "BSTAR": 0.00065587772, "MEAN_MOTION_DOT": 1.874e-05, "MEAN_MOTION_DDOT": 0}, "tle": {"line1": "1 33995U 93036GE  25355.59564980  .00001874  00000+0  65588-3 0  9990", "line2": "2 33995  74.0618 103.1505 0059526 115.0720 245.6627 14.34812601876468"}}, "geometry": {"type": "Point", "coordinates": [104.43428800961166, 6.70018806061562]}}, {"type": "Feature", "properties": {"norad_id": 33999, "name": "COSMOS 2251 DEB", "group": "cosmos-2251-debris", "lat": -22.65722524662098, "lon": -154.50150324265647, "alt_km": 642.6908120561193, "timestamp": "2025-12-21T22:41:41.852370+00:00", "meta": {"OBJECT_NAME": "COSMOS 2251 DEB", "OBJECT_ID": "1993-036GJ", "EPOCH": "2025-12-21T00:08:35.899584", "MEAN_MOTION": 14.83509609, "ECCENTRICITY": 0.00443849, "INCLINATION": 73.9174, "RA_OF_ASC_NODE": 214.2892, "ARG_OF_PERICENTER": 107.3772, "MEAN_ANOMALY": 253.2267, "EPHEMERIS_TYPE": 0, "CLASSIFICATION_TYPE": "U", "NORAD_CAT_ID": 33999, "ELEMENT_SET_NO": 999, "REV_AT_EPOCH": 89373, "BSTAR": 0.00071982618, "MEAN_MOTION_DOT": 5.995e-05, "MEAN_MOTION_DDOT": 0}, "tle": {"line1": "1 33999U 93036GJ  25355.00597106  .00005995  00000+0  71983-3 0  9990", "line2": "2 33999  73.9174 214.2892 0044384 107.3772 253.2267 14.83509609893736"}}, "geometry": {"type": "Point", "coordinates": [-154.50150324265647, -22.65722524662098]}}]}